HELIOS 1B               
1 25977U 99064A   26091.71569239  .00001783  00000+0  20174-3 0  9993
2 25977  98.1675 354.6335 0001643  46.1288 314.0062 14.87787759688685
TERRA                   
1 25994U 99068A   26091.88470495  .00000506  00000+0  11221-3 0  9994
2 25994  97.9544 144.4278 0003647 103.7020  68.9562 14.61039412398469
SL-16 R/B               
1 26070U 00006B   26091.62090323  .00000220  00000+0  13593-3 0  9991
2 26070  71.0032  49.6168 0015439 153.8880 206.3025 14.15829762351809
TITAN 4B R/B            
1 26474U 00047B   26091.81890207  .00003998  00000+0  25067-3 0  9998
2 26474  67.9909 335.4640 0040075   8.2486 351.9313 15.09776367396402
ENVISAT                 
1 27386U 02009A   26091.82734740  .00000142  00000+0  59702-4 0  9993
2 27386  98.3767  44.8793 0001213  82.1801 297.4256 14.39045053262504
IDEFIX & ARIANE 42P R/B 
1 27422U 02021B   26091.56932468  .00000324  00000+0  13959-3 0  9991
2 27422  98.5898  29.9058 0012782 117.2271 243.0216 14.31041705247298
AQUA                    
1 27424U 02022A   26091.87936063  .00001188  00000+0  24658-3 0  9990
2 27424  98.4214  59.6737 0001292 116.5416 271.6514 14.62030529272126
CZ-4B R/B               
1 27432U 02024C   26091.14082991  .00000063  00000+0  55316-4 0  9990
2 27432  98.8790 144.4296 0049376 320.1745  97.7930 14.14551660232412
MIDORI II (ADEOS-II)    
1 27597U 02056A   26091.62511578  .00000377  00000+0  16592-3 0  9998
2 27597  98.7808  50.2669 0000541  21.2699 338.8505 14.29302684213578
H-2A R/B                
1 27601U 02056E   26091.61906447  .00000370  00000+0  14383-3 0  9995
2 27601  98.3243  51.1173 0071427  93.1914  80.0952 14.33776523217390
CZ-4B R/B               
1 28059U 03049C   26091.69569664  .00000440  00000+0  11226-3 0  9991
2 28059  98.6895  87.5067 0048515 160.2155 200.0937 14.55041012189942
CZ-2C R/B               
1 28222U 04012C   26091.16739129  .00075596  00000+0  69486-3 0  9996
2 28222  97.7179 158.6306 0013541 220.9226 139.1019 15.67342443207792
SL-16 R/B               
1 28353U 04021B   26091.50934748  .00000336  00000+0  19963-3 0  9998
2 28353  71.0011 184.6051 0005199 341.4090  18.6841 14.14597396126065
CZ-4B R/B               
1 28415U 04035C   26091.81077181  .00008704  00000+0  30312-3 0  9993
2 28415  97.3456 125.7777 0030166 244.9278 114.8830 15.29472229183442
CZ-2C R/B               
1 28480U 04046B   26091.48434044  .00000199  00000+0  88419-4 0  9997
2 28480  98.1978   5.0480 0140631  87.4871 274.2402 14.27000615111755
ARIANE 5 R/B            
1 28499U 04049H   26091.73970083  .00001045  00000+0  12166-3 0  9992
2 28499  98.2660 261.0652 0082845 276.4779  82.7007 14.85309145149217
CZ-2D R/B               
1 28738U 05024B   26091.78384676  .00048681  00000+0  55027-3 0  9994
2 28738  97.3569 107.8112 0001911 303.4150  56.6925 15.62322761143384
